{
    "links": {
        "self": "http://www.neowsapp.com/rest/v1/neo/3739082?api_key=iIulBulltgU6a56xZRHN4H3l9WmuAYTsLGpBGhQ2"
    },
    "id": "3739082",
    "neo_reference_id": "3739082",
    "name": "(2015 YT10)",
    "designation": "2015 YT10",
    "nasa_jpl_url": "http://ssd.jpl.nasa.gov/sbdb.cgi?sstr=3739082",
    "absolute_magnitude_h": 20.0,
    "estimated_diameter": {
        "kilometers": {
            "estimated_diameter_min": 0.2658,
            "estimated_diameter_max": 0.5943468684
        },
        "meters": {
            "estimated_diameter_min": 265.8,
            "estimated_diameter_max": 594.3468684194
        },
        "miles": {
            "estimated_diameter_min": 0.1651604118,
            "estimated_diameter_max": 0.369309908
        },
        "feet": {
            "estimated_diameter_min": 872.047272,
            "estimated_diameter_max": 1949.9569797852
        }
    },
    "is_potentially_hazardous_asteroid": false,
    "close_approach_data": [
        {
            "close_approach_date": "2003-08-04",
            "close_approach_date_full": "2003-Aug-04 14:42",
            "epoch_date_close_approach": 1060008120000,
            "relative_velocity": {
                "kilometers_per_second": "9.0036593981",
                "kilometers_per_hour": "32413.1738330746",
                "miles_per_hour": "20140.2857075569"
            },
            "miss_distance": {
                "astronomical": "1.9266217961",
                "lunar": "749.4558786829",
                "kilometers": "288218516.992134307",
                "miles": "179090681.9136431566"
            },
            "orbiting_body": "Juptr"
        },
        {
            "close_approach_date": "2015-12-18",
            "close_approach_date_full": "2015-Dec-18 11:04",
            "epoch_date_close_approach": 1450436640000,
            "relative_velocity": {
                "kilometers_per_second": "31.660473939",
                "kilometers_per_hour": "113977.7061803359",
                "miles_per_hour": "70821.3141541093"
            },
            "miss_distance": {
                "astronomical": "0.2766244343",
                "lunar": "107.6069049427",
                "kilometers": "41382426.161234941",
                "miles": "25713847.2496505458"
            },
            "orbiting_body": "Earth"
        },
        {
            "close_approach_date": "2019-05-03",
            "close_approach_date_full": "2019-May-03 23:53",
            "epoch_date_close_approach": 1556927580000,
            "relative_velocity": {
                "kilometers_per_second": "35.7406864297",
                "kilometers_per_hour": "128666.4711468736",
                "miles_per_hour": "79948.3414745671"
            },
            "miss_distance": {
                "astronomical": "0.4093821212",
                "lunar": "159.2496451468",
                "kilometers": "61242693.347601844",
                "miles": "38054445.0381356872"
            },
            "orbiting_body": "Earth"
        },
        {
            "close_approach_date": "2026-08-06",
            "close_approach_date_full": "2026-Aug-06 04:34",
            "epoch_date_close_approach": 1785990840000,
            "relative_velocity": {
                "kilometers_per_second": "25.4434438416",
                "kilometers_per_hour": "91596.3978299249",
                "miles_per_hour": "56914.4395293775"
            },
            "miss_distance": {
                "astronomical": "0.1173111126",
                "lunar": "45.6340228014",
                "kilometers": "17549492.572290162",
                "miles": "10904749.0244897556"
            },
            "orbiting_body": "Venus"
        }
    ],
    "orbital_data": {
        "orbit_id": "15",
        "orbit_determination_date": "2017-08-10 06:19:31",
        "first_observation_date": "2015-12-25",
        "last_observation_date": "2016-02-05",
        "data_arc_in_days": 42,
        "observations_used": 95,
        "orbit_uncertainty": "6",
        "minimum_orbit_intersection": ".166756",
        "jupiter_tisserand_invariant": "3.030",
        "epoch_osculation": "2459000.5",
        "eccentricity": ".7847885982995979",
        "semi_major_axis": "2.352203472298336",
        "inclination": "10.90957730496281",
        "ascending_node_longitude": "136.9610249512656",
        "orbital_period": "1317.682435739609",
        "perihelion_distance": ".5062210063578778",
        "perihelion_argument": "200.8593223577239",
        "aphelion_distance": "4.198185938238794",
        "perihelion_time": "2458648.919428224081",
        "mean_anomaly": "96.05425587105753",
        "mean_motion": ".2732069505031641",
        "equinox": "J2000",
        "orbit_class": {
            "orbit_class_type": "APO",
            "orbit_class_description": "Near-Earth asteroid orbits which cross the Earth’s orbit similar to that of 1862 Apollo",
            "orbit_class_range": "a (semi-major axis) > 1.0 AU; q (perihelion) < 1.017 AU"
        }
    },
    "is_sentry_object": false
}